[{"OBJECT_NAME":"STARLINK-5541","OBJECT_ID":"2023-064AD","EPOCH":"2026-03-09T12:31:50.866464","MEAN_MOTION":14.98353783,"ECCENTRICITY":0.00033811,"INCLINATION":69.9994,"RA_OF_ASC_NODE":124.9029,"ARG_OF_PERICENTER":267.8014,"MEAN_ANOMALY":92.2758,"EPHEMERIS_TYPE":0,"CLASSIFICATION_TYPE":"U","NORAD_CAT_ID":56475,"ELEMENT_SET_NO":999,"REV_AT_EPOCH":15571,"BSTAR":0.00020202542,"MEAN_MOTION_DOT":2.32e-5,"MEAN_MOTION_DDOT":0},{"OBJECT_NAME":"IKONOS 2","OBJECT_ID":"1999-051A","EPOCH":"2026-03-09T15:19:40.153152","MEAN_MOTION":14.96976552,"ECCENTRICITY":0.0006412,"INCLINATION":98.1486,"RA_OF_ASC_NODE":313.4587,"ARG_OF_PERICENTER":157.8343,"MEAN_ANOMALY":202.3156,"EPHEMERIS_TYPE":0,"CLASSIFICATION_TYPE":"U","NORAD_CAT_ID":25919,"ELEMENT_SET_NO":999,"REV_AT_EPOCH":42402,"BSTAR":0.00024901,"MEAN_MOTION_DOT":2.801e-5,"MEAN_MOTION_DDOT":0}]
